{
  "type": "FeatureCollection",
  "features": [
    {
      "type": "Feature",
      "properties": {
        "norad_id": 58701,
        "name": "TIANMU-1 16",
        "group": "weather",
        "lat": -42.96440308199285,
        "lon": -29.725419771665674,
        "alt_km": 501.66490127558154,
        "timestamp": "2025-12-02T08:59:32.362768+00:00",
        "meta_object_name": "TIANMU-1 16",
        "meta_object_id": "2024-004B",
        "meta_epoch": "2025-11-28T17:21:14.562144",
        "meta_mean_motion": 15.24146454,
        "meta_eccentricity": 0.00054689,
        "meta_inclination": 97.457,
        "meta_ra_of_asc_node": 153.6495,
        "meta_arg_of_pericenter": 351.9748,
        "meta_mean_anomaly": 8.1401,
        "meta_ephemeris_type": 0,
        "meta_classification_type": "U",
        "meta_norad_cat_id": 58701,
        "meta_element_set_no": 999,
        "meta_rev_at_epoch": 10521,
        "meta_bstar": 5.4123761e-05,
        "meta_mean_motion_dot": 1.245e-05,
        "meta_mean_motion_ddot": 0,
        "tle_line1": "1 58701U 24004B   25332.72308521  .00001245  00000+0  54124-4 0  9995",
        "tle_line2": "2 58701  97.4570 153.6495 0005468 351.9748   8.1401 15.24146454105217"
      },
      "geometry": {
        "type": "Point",
        "coordinates": [
          -29.725419771665674,
          -42.96440308199285
        ]
      }
    },
    {
      "type": "Feature",
      "properties": {
        "norad_id": 58702,
        "name": "TIANMU-1 17",
        "group": "weather",
        "lat": -52.8615551584909,
        "lon": 167.65068813521947,
        "alt_km": 497.59141940813424,
        "timestamp": "2025-12-02T08:59:32.362779+00:00",
        "meta_object_name": "TIANMU-1 17",
        "meta_object_id": "2024-004C",
        "meta_epoch": "2025-12-01T20:37:19.568064",
        "meta_mean_motion": 15.24246886,
        "meta_eccentricity": 0.0004432,
        "meta_inclination": 97.4602,
        "meta_ra_of_asc_node": 157.1742,
        "meta_arg_of_pericenter": 344.5644,
        "meta_mean_anomaly": 15.5457,
        "meta_ephemeris_type": 0,
        "meta_classification_type": "U",
        "meta_norad_cat_id": 58702,
        "meta_element_set_no": 999,
        "meta_rev_at_epoch": 10568,
        "meta_bstar": 0.00031657,
        "meta_mean_motion_dot": 7.655e-05,
        "meta_mean_motion_ddot": 0,
        "tle_line1": "1 58702U 24004C   25335.85925426  .00007655  00000+0  31657-3 0  9998",
        "tle_line2": "2 58702  97.4602 157.1742 0004432 344.5644  15.5457 15.24246886105685"
      },
      "geometry": {
        "type": "Point",
        "coordinates": [
          167.65068813521947,
          -52.8615551584909
        ]
      }
    },
    {
      "type": "Feature",
      "properties": {
        "norad_id": 58703,
        "name": "TIANMU-1 18",
        "group": "weather",
        "lat": 38.04760271738244,
        "lon": 151.99250324045462,
        "alt_km": 488.77761679250216,
        "timestamp": "2025-12-02T08:59:32.362793+00:00",
        "meta_object_name": "TIANMU-1 18",
        "meta_object_id": "2024-004D",
        "meta_epoch": "2025-12-01T20:13:11.633664",
        "meta_mean_motion": 15.24240282,
        "meta_eccentricity": 0.0003804,
        "meta_inclination": 97.462,
        "meta_ra_of_asc_node": 157.3504,
        "meta_arg_of_pericenter": 346.3455,
        "meta_mean_anomaly": 13.7679,
        "meta_ephemeris_type": 0,
        "meta_classification_type": "U",
        "meta_norad_cat_id": 58703,
        "meta_element_set_no": 999,
        "meta_rev_at_epoch": 10568,
        "meta_bstar": 0.00029906,
        "meta_mean_motion_dot": 7.226e-05,
        "meta_mean_motion_ddot": 0,
        "tle_line1": "1 58703U 24004D   25335.84249576  .00007226  00000+0  29906-3 0  9991",
        "tle_line2": "2 58703  97.4620 157.3504 0003804 346.3455  13.7679 15.24240282105686"
      },
      "geometry": {
        "type": "Point",
        "coordinates": [
          151.99250324045462,
          38.04760271738244
        ]
      }
    },
    {
      "type": "Feature",
      "properties": {
        "norad_id": 58990,
        "name": "INSAT-3DS",
        "group": "weather",
        "lat": 0.001602701615110448,
        "lon": -71.53813878996247,
        "alt_km": 35781.173761098704,
        "timestamp": "2025-12-02T08:59:32.362805+00:00",
        "meta_object_name": "INSAT-3DS",
        "meta_object_id": "2024-033A",
        "meta_epoch": "2025-12-02T02:11:22.196832",
        "meta_mean_motion": 1.00269802,
        "meta_eccentricity": 0.000158,
        "meta_inclination": 0.0134,
        "meta_ra_of_asc_node": 265.382,
        "meta_arg_of_pericenter": 348.0562,
        "meta_mean_anomaly": 292.7221,
        "meta_ephemeris_type": 0,
        "meta_classification_type": "U",
        "meta_norad_cat_id": 58990,
        "meta_element_set_no": 999,
        "meta_rev_at_epoch": 4509,
        "meta_bstar": 0,
        "meta_mean_motion_dot": -1.35e-06,
        "meta_mean_motion_ddot": 0,
        "tle_line1": "1 58990U 24033A   25336.09122913 -.00000135  00000+0  00000+0 0  9997",
        "tle_line2": "2 58990   0.0134 265.3820 0001580 348.0562 292.7221  1.00269802 45090"
      },
      "geometry": {
        "type": "Point",
        "coordinates": [
          -71.53813878996247,
          0.001602701615110448
        ]
      }
    },
    {
      "type": "Feature",
      "properties": {
        "norad_id": 59051,
        "name": "METEOR-M2 4",
        "group": "weather",
        "lat": 50.499844195345744,
        "lon": -77.22655785958928,
        "alt_km": 807.5864717886261,
        "timestamp": "2025-12-02T08:59:32.362816+00:00",
        "meta_object_name": "METEOR-M2 4",
        "meta_object_id": "2024-039A",
        "meta_epoch": "2025-12-02T03:41:15.168192",
        "meta_mean_motion": 14.22398569,
        "meta_eccentricity": 0.00076,
        "meta_inclination": 98.6752,
        "meta_ra_of_asc_node": 293.2293,
        "meta_arg_of_pericenter": 27.9049,
        "meta_mean_anomaly": 332.2535,
        "meta_ephemeris_type": 0,
        "meta_classification_type": "U",
        "meta_norad_cat_id": 59051,
        "meta_element_set_no": 999,
        "meta_rev_at_epoch": 9125,
        "meta_bstar": 4.3646e-05,
        "meta_mean_motion_dot": 5.4e-07,
        "meta_mean_motion_ddot": 0,
        "tle_line1": "1 59051U 24039A   25336.15364778  .00000054  00000+0  43646-4 0  9993",
        "tle_line2": "2 59051  98.6752 293.2293 0007600  27.9049 332.2535 14.22398569 91252"
      },
      "geometry": {
        "type": "Point",
        "coordinates": [
          -77.22655785958928,
          50.499844195345744
        ]
      }
    },
    {
      "type": "Feature",
      "properties": {
        "norad_id": 60133,
        "name": "GOES 19",
        "group": "weather",
        "lat": -0.00021096799622049068,
        "lon": 131.15567142344102,
        "alt_km": 35790.96770389151,
        "timestamp": "2025-12-02T08:59:32.362827+00:00",
        "meta_object_name": "GOES 19",
        "meta_object_id": "2024-119A",
        "meta_epoch": "2025-12-01T18:35:24.333216",
        "meta_mean_motion": 1.00271597,
        "meta_eccentricity": 0.0001165,
        "meta_inclination": 0.0159,
        "meta_ra_of_asc_node": 141.7458,
        "meta_arg_of_pericenter": 156.5209,
        "meta_mean_anomaly": 336.2961,
        "meta_ephemeris_type": 0,
        "meta_classification_type": "U",
        "meta_norad_cat_id": 60133,
        "meta_element_set_no": 999,
        "meta_rev_at_epoch": 498,
        "meta_bstar": 0,
        "meta_mean_motion_dot": -2.27e-06,
        "meta_mean_motion_ddot": 0,
        "tle_line1": "1 60133U 24119A   25335.77458719 -.00000227  00000+0  00000+0 0  9996",
        "tle_line2": "2 60133   0.0159 141.7458 0001165 156.5209 336.2961  1.00271597  4984"
      },
      "geometry": {
        "type": "Point",
        "coordinates": [
          131.15567142344102,
          -0.00021096799622049068
        ]
      }
    },
    {
      "type": "Feature",
      "properties": {
        "norad_id": 65815,
        "name": "FENGYUN 3H",
        "group": "weather",
        "lat": 22.947896004385644,
        "lon": -87.50757941420082,
        "alt_km": 824.889135761714,
        "timestamp": "2025-12-02T08:59:32.362839+00:00",
        "meta_object_name": "FENGYUN 3H",
        "meta_object_id": "2025-219A",
        "meta_epoch": "2025-12-02T02:07:06.300768",
        "meta_mean_motion": 14.19899654,
        "meta_eccentricity": 6.57e-05,
        "meta_inclination": 98.6568,
        "meta_ra_of_asc_node": 275.9107,
        "meta_arg_of_pericenter": 68.5837,
        "meta_mean_anomaly": 291.541,
        "meta_ephemeris_type": 0,
        "meta_classification_type": "U",
        "meta_norad_cat_id": 65815,
        "meta_element_set_no": 999,
        "meta_rev_at_epoch": 941,
        "meta_bstar": 7.2183e-05,
        "meta_mean_motion_dot": 1.1e-06,
        "meta_mean_motion_ddot": 0,
        "tle_line1": "1 65815U 25219A   25336.08826737  .00000110  00000+0  72183-4 0  9990",
        "tle_line2": "2 65815  98.6568 275.9107 0000657  68.5837 291.5410 14.19899654  9417"
      },
      "geometry": {
        "type": "Point",
        "coordinates": [
          -87.50757941420082,
          22.947896004385644
        ]
      }
    }
  ]
}